STARLINK-36870          
1 67897U 26035U   26068.91668981 -.01392445  00000+0 -62536-2 0  9996
2 67897  97.2676   1.2838 0001376  89.1714  25.6486 15.86833139  3792
STARLINK-36810          
1 67898U 26035V   26068.91668981 -.01391104  00000+0 -62567-2 0  9992
2 67898  97.2675   1.2856 0001379  80.8671  38.5488 15.86800377  3798
STARLINK-36878          
1 67899U 26035W   26068.91668981 -.01408602  00000+0 -63600-2 0  9994
2 67899  97.2671   1.2894 0001495  99.5198  29.0422 15.86757580  3797
STARLINK-36361          
1 67900U 26035X   26068.91668981 -.01418680  00000+0 -64258-2 0  9994
2 67900  97.2670   1.2913 0001493  92.0974  41.2267 15.86714809  3799
STARLINK-36336          
1 67901U 26035Y   26068.91668981 -.01436261  00000+0 -65629-2 0  9993
2 67901  97.2677   1.2985 0001487  84.3601  63.3336 15.86573780  3849
STARLINK-36876          
1 67902U 26035Z   26068.91668981 -.01420826  00000+0 -64413-2 0  9994
2 67902  97.2676   1.2947 0001490  91.7409  46.0724 15.86701096  3795
STARLINK-36257          
1 67903U 26035AA  26068.91668981 -.01427743  00000+0 -64849-2 0  9993
2 67903  97.2673   1.2955 0001445  83.0592  59.3433 15.86678257  3841
STARLINK-36814          
1 67904U 26036A   26068.91668981 -.01861626  00000+0 -14124-1 0  9997
2 67904  42.9995 248.4785 0001579 276.7790 148.1663 15.74661974  3680
STARLINK-36729          
1 67905U 26036B   26068.90050927  .00247429  00000+0  11402-2 0  9995
2 67905  42.9989 248.5066 0002129 266.7566  93.3062 15.82092344  3704
STARLINK-36763          
1 67906U 26036C   26068.89976368  .00195584  00000+0  90861-3 0  9991
2 67906  42.9991 248.5006 0001657 287.2048  72.8643 15.82061167  3706
STARLINK-36742          
1 67907U 26036D   26068.89901139  .00267893  00000+0  12310-2 0  9991
2 67907  42.9993 248.4957 0002122 279.1110  80.9522 15.82098755  3700
STARLINK-36827          
1 67908U 26036E   26068.89826382  .00242303  00000+0  11180-2 0  9991
2 67908  42.9987 248.4880 0001836 278.4381  81.6282 15.82079255  3707
