CCSDS_OMM_VERS = 2.0
CREATION_DATE  = 
ORIGINATOR     = 

OBJECT_NAME    = STARLINK-36870
OBJECT_ID      = 2026-035U
CENTER_NAME    = EARTH
REF_FRAME      = TEME
TIME_SYSTEM    = UTC
MEAN_ELEMENT_THEORY = SGP/SGP4

EPOCH          = 2026-03-09T22:00:01.999584
MEAN_MOTION    = 15.86833139
ECCENTRICITY   = .00013767
INCLINATION    = 97.2676
RA_OF_ASC_NODE = 1.2838
ARG_OF_PERICENTER = 89.1714
MEAN_ANOMALY   = 25.6486

EPHEMERIS_TYPE = 0
CLASSIFICATION_TYPE = U
NORAD_CAT_ID   = 67897
ELEMENT_SET_NO = 999
REV_AT_EPOCH   = 379
BSTAR          = -.62535552E-2
MEAN_MOTION_DOT = -.1392445E-1
MEAN_MOTION_DDOT = 0

CCSDS_OMM_VERS = 2.0
CREATION_DATE  = 
ORIGINATOR     = 

OBJECT_NAME    = STARLINK-36810
OBJECT_ID      = 2026-035V
CENTER_NAME    = EARTH
REF_FRAME      = TEME
TIME_SYSTEM    = UTC
MEAN_ELEMENT_THEORY = SGP/SGP4

EPOCH          = 2026-03-09T22:00:01.999584
MEAN_MOTION    = 15.86800377
ECCENTRICITY   = .00013796
INCLINATION    = 97.2675
RA_OF_ASC_NODE = 1.2856
ARG_OF_PERICENTER = 80.8671
MEAN_ANOMALY   = 38.5488

EPHEMERIS_TYPE = 0
CLASSIFICATION_TYPE = U
NORAD_CAT_ID   = 67898
ELEMENT_SET_NO = 999
REV_AT_EPOCH   = 379
BSTAR          = -.62567364E-2
MEAN_MOTION_DOT = -.1391104E-1
MEAN_MOTION_DDOT = 0

CCSDS_OMM_VERS = 2.0
CREATION_DATE  = 
ORIGINATOR     = 

OBJECT_NAME    = STARLINK-36878
OBJECT_ID      = 2026-035W
CENTER_NAME    = EARTH
REF_FRAME      = TEME
TIME_SYSTEM    = UTC
MEAN_ELEMENT_THEORY = SGP/SGP4

EPOCH          = 2026-03-09T22:00:01.999584
MEAN_MOTION    = 15.86757580
ECCENTRICITY   = .00014951
INCLINATION    = 97.2671
RA_OF_ASC_NODE = 1.2894
ARG_OF_PERICENTER = 99.5198
MEAN_ANOMALY   = 29.0422

EPHEMERIS_TYPE = 0
CLASSIFICATION_TYPE = U
NORAD_CAT_ID   = 67899
ELEMENT_SET_NO = 999
REV_AT_EPOCH   = 379
BSTAR          = -.63599641E-2
MEAN_MOTION_DOT = -.1408602E-1
MEAN_MOTION_DDOT = 0

CCSDS_OMM_VERS = 2.0
CREATION_DATE  = 
ORIGINATOR     = 

OBJECT_NAME    = STARLINK-36361
OBJECT_ID      = 2026-035X
CENTER_NAME    = EARTH
REF_FRAME      = TEME
TIME_SYSTEM    = UTC
MEAN_ELEMENT_THEORY = SGP/SGP4

EPOCH          = 2026-03-09T22:00:01.999584
MEAN_MOTION    = 15.86714809
ECCENTRICITY   = .00014939
INCLINATION    = 97.2670
RA_OF_ASC_NODE = 1.2913
ARG_OF_PERICENTER = 92.0974
MEAN_ANOMALY   = 41.2267

EPHEMERIS_TYPE = 0
CLASSIFICATION_TYPE = U
NORAD_CAT_ID   = 67900
ELEMENT_SET_NO = 999
REV_AT_EPOCH   = 379
BSTAR          = -.64257713E-2
MEAN_MOTION_DOT = -.141868E-1
MEAN_MOTION_DDOT = 0

CCSDS_OMM_VERS = 2.0
CREATION_DATE  = 
ORIGINATOR     = 

OBJECT_NAME    = STARLINK-36336
OBJECT_ID      = 2026-035Y
CENTER_NAME    = EARTH
REF_FRAME      = TEME
TIME_SYSTEM    = UTC
MEAN_ELEMENT_THEORY = SGP/SGP4

EPOCH          = 2026-03-09T22:00:01.999584
MEAN_MOTION    = 15.86573780
ECCENTRICITY   = .00014877
INCLINATION    = 97.2677
RA_OF_ASC_NODE = 1.2985
ARG_OF_PERICENTER = 84.3601
MEAN_ANOMALY   = 63.3336

EPHEMERIS_TYPE = 0
CLASSIFICATION_TYPE = U
NORAD_CAT_ID   = 67901
ELEMENT_SET_NO = 999
REV_AT_EPOCH   = 384
BSTAR          = -.65628892E-2
MEAN_MOTION_DOT = -.1436261E-1
MEAN_MOTION_DDOT = 0

CCSDS_OMM_VERS = 2.0
CREATION_DATE  = 
ORIGINATOR     = 

OBJECT_NAME    = STARLINK-36876
OBJECT_ID      = 2026-035Z
CENTER_NAME    = EARTH
REF_FRAME      = TEME
TIME_SYSTEM    = UTC
MEAN_ELEMENT_THEORY = SGP/SGP4

EPOCH          = 2026-03-09T22:00:01.999584
MEAN_MOTION    = 15.86701096
ECCENTRICITY   = .00014903
INCLINATION    = 97.2676
RA_OF_ASC_NODE = 1.2947
ARG_OF_PERICENTER = 91.7409
MEAN_ANOMALY   = 46.0724

EPHEMERIS_TYPE = 0
CLASSIFICATION_TYPE = U
NORAD_CAT_ID   = 67902
ELEMENT_SET_NO = 999
REV_AT_EPOCH   = 379
BSTAR          = -.64413054E-2
MEAN_MOTION_DOT = -.1420826E-1
MEAN_MOTION_DDOT = 0

CCSDS_OMM_VERS = 2.0
CREATION_DATE  = 
ORIGINATOR     = 

OBJECT_NAME    = STARLINK-36257
OBJECT_ID      = 2026-035AA
CENTER_NAME    = EARTH
REF_FRAME      = TEME
TIME_SYSTEM    = UTC
MEAN_ELEMENT_THEORY = SGP/SGP4

EPOCH          = 2026-03-09T22:00:01.999584
MEAN_MOTION    = 15.86678257
ECCENTRICITY   = .00014458
INCLINATION    = 97.2673
RA_OF_ASC_NODE = 1.2955
ARG_OF_PERICENTER = 83.0592
MEAN_ANOMALY   = 59.3433

EPHEMERIS_TYPE = 0
CLASSIFICATION_TYPE = U
NORAD_CAT_ID   = 67903
ELEMENT_SET_NO = 999
REV_AT_EPOCH   = 384
BSTAR          = -.64848651E-2
MEAN_MOTION_DOT = -.1427743E-1
MEAN_MOTION_DDOT = 0

CCSDS_OMM_VERS = 2.0
CREATION_DATE  = 
ORIGINATOR     = 

OBJECT_NAME    = STARLINK-36814
OBJECT_ID      = 2026-036A
CENTER_NAME    = EARTH
REF_FRAME      = TEME
TIME_SYSTEM    = UTC
MEAN_ELEMENT_THEORY = SGP/SGP4

EPOCH          = 2026-03-09T22:00:01.999584
MEAN_MOTION    = 15.74661974
ECCENTRICITY   = .00015797
INCLINATION    = 42.9995
RA_OF_ASC_NODE = 248.4785
ARG_OF_PERICENTER = 276.7790
MEAN_ANOMALY   = 148.1663

EPHEMERIS_TYPE = 0
CLASSIFICATION_TYPE = U
NORAD_CAT_ID   = 67904
ELEMENT_SET_NO = 999
REV_AT_EPOCH   = 368
BSTAR          = -.14123764E-1
MEAN_MOTION_DOT = -.1861626E-1
MEAN_MOTION_DDOT = 0

CCSDS_OMM_VERS = 2.0
CREATION_DATE  = 
ORIGINATOR     = 

OBJECT_NAME    = STARLINK-36729
OBJECT_ID      = 2026-036B
CENTER_NAME    = EARTH
REF_FRAME      = TEME
TIME_SYSTEM    = UTC
MEAN_ELEMENT_THEORY = SGP/SGP4

EPOCH          = 2026-03-09T21:36:44.000928
MEAN_MOTION    = 15.82092344
ECCENTRICITY   = .00021298
INCLINATION    = 42.9989
RA_OF_ASC_NODE = 248.5066
ARG_OF_PERICENTER = 266.7566
MEAN_ANOMALY   = 93.3062

EPHEMERIS_TYPE = 0
CLASSIFICATION_TYPE = U
NORAD_CAT_ID   = 67905
ELEMENT_SET_NO = 999
REV_AT_EPOCH   = 370
BSTAR          = .11402138E-2
MEAN_MOTION_DOT = .247429E-2
MEAN_MOTION_DDOT = 0

CCSDS_OMM_VERS = 2.0
CREATION_DATE  = 
ORIGINATOR     = 

OBJECT_NAME    = STARLINK-36763
OBJECT_ID      = 2026-036C
CENTER_NAME    = EARTH
REF_FRAME      = TEME
TIME_SYSTEM    = UTC
MEAN_ELEMENT_THEORY = SGP/SGP4

EPOCH          = 2026-03-09T21:35:39.581952
MEAN_MOTION    = 15.82061167
ECCENTRICITY   = .00016578
INCLINATION    = 42.9991
RA_OF_ASC_NODE = 248.5006
ARG_OF_PERICENTER = 287.2048
MEAN_ANOMALY   = 72.8643

EPHEMERIS_TYPE = 0
CLASSIFICATION_TYPE = U
NORAD_CAT_ID   = 67906
ELEMENT_SET_NO = 999
REV_AT_EPOCH   = 370
BSTAR          = .90861422E-3
MEAN_MOTION_DOT = .195584E-2
MEAN_MOTION_DDOT = 0

CCSDS_OMM_VERS = 2.0
CREATION_DATE  = 
ORIGINATOR     = 

OBJECT_NAME    = STARLINK-36742
OBJECT_ID      = 2026-036D
CENTER_NAME    = EARTH
REF_FRAME      = TEME
TIME_SYSTEM    = UTC
MEAN_ELEMENT_THEORY = SGP/SGP4

EPOCH          = 2026-03-09T21:34:34.584096
MEAN_MOTION    = 15.82098755
ECCENTRICITY   = .00021223
INCLINATION    = 42.9993
RA_OF_ASC_NODE = 248.4957
ARG_OF_PERICENTER = 279.1110
MEAN_ANOMALY   = 80.9522

EPHEMERIS_TYPE = 0
CLASSIFICATION_TYPE = U
NORAD_CAT_ID   = 67907
ELEMENT_SET_NO = 999
REV_AT_EPOCH   = 370
BSTAR          = .12310091E-2
MEAN_MOTION_DOT = .267893E-2
MEAN_MOTION_DDOT = 0

CCSDS_OMM_VERS = 2.0
CREATION_DATE  = 
ORIGINATOR     = 

OBJECT_NAME    = STARLINK-36827
OBJECT_ID      = 2026-036E
CENTER_NAME    = EARTH
REF_FRAME      = TEME
TIME_SYSTEM    = UTC
MEAN_ELEMENT_THEORY = SGP/SGP4

EPOCH          = 2026-03-09T21:33:29.994048
MEAN_MOTION    = 15.82079255
ECCENTRICITY   = .0001836
INCLINATION    = 42.9987
RA_OF_ASC_NODE = 248.4880
ARG_OF_PERICENTER = 278.4381
MEAN_ANOMALY   = 81.6282

EPHEMERIS_TYPE = 0
CLASSIFICATION_TYPE = U
NORAD_CAT_ID   = 67908
ELEMENT_SET_NO = 999
REV_AT_EPOCH   = 370
BSTAR          = .11180104E-2
MEAN_MOTION_DOT = .242303E-2
MEAN_MOTION_DDOT = 0

